SKIF-D                  
1 54153U 22139D   26061.13257066  .00000043  00000+0  00000+0 0  9995
2 54153  89.9567  96.7061 0007341 236.8899 123.1172  5.00430291 58759
MATS                    
1 54227U 22147A   26061.60357980  .00004585  00000+0  33051-3 0  9995
2 54227  97.6835  63.7188 0012086 193.5076 166.5828 15.04595677181736
JILIN-1 GAOFEN 03D54    
1 54254U 22155D   26061.83455063  .00097889  00000+0  92212-3 0  9993
2 54254  97.6016 204.0484 0002113 352.2022   7.9205 15.66771615183512
EOS-6 (OCEANSAT-3)      
1 54361U 22158A   26061.88065363  .00000452  00000+0  13629-3 0  9995
2 54361  98.3492 161.5229 0000307  30.3301 329.7909 14.46998296172469
DONGPO 09               
1 54685U 22167D   26061.83481703  .00016722  00000+0  51518-3 0  9995
2 54685  97.6786 228.3508 0003522 134.5659 225.5870 15.33695123179134
DONGPO 08               
1 54686U 22167E   26061.83473142  .00015156  00000+0  50295-3 0  9995
2 54686  97.6743 226.0129 0008916 178.2275 181.8999 15.31302483179030
2022-167F               
1 54687U 22167F   26061.85623876  .00085683  00000+0  79640-3 0  9996
2 54687  97.6209 238.9997 0001709  63.5082 296.6353 15.67147122180068
DONGPO 10               
1 54689U 22167H   26061.89447569  .00015222  00000+0  49404-3 0  9992
2 54689  97.6829 227.7786 0006093 128.2457 231.9333 15.32038195179076
JILIN-1 GAOFEN 03D48    
1 54695U 22167P   26061.87647082  .00016562  00000+0  52619-3 0  9999
2 54695  97.6760 227.1139 0007439 133.6849 226.5010 15.32694393179095
STAR VIBE               
1 55009U 23001A   26061.81557549  .00018066  00000+0  46150-3 0  9993
2 55009  97.3311 126.0188 0007373 131.9222 228.2654 15.39499033175841
BRO-8                   
1 55011U 23001C   26061.82774816  .00032918  00000+0  75468-3 0  9991
2 55011  97.3363 125.9096 0007710 142.5559 217.6227 15.42653075175775
CONNECTA T1.2           
1 55012U 23001D   26061.72373194  .00020536  00000+0  44924-3 0  9991
2 55012  97.3405 131.0052 0008037 123.3922 236.8096 15.44143303176089
BIRKELAND               
1 55015U 23001G   26061.84617360  .00012759  00000+0  34301-3 0  9999
2 55015  97.3465 129.6453 0008568 123.5902 236.6162 15.37995324175996
ION SCV-008             
1 55051U 23001AU  26061.81333829  .00009202  00000+0  34786-3 0  9997
2 55051  97.5693 156.4956 0015841  32.8713 327.3508 15.27089238175091
ION SCV-007             
1 55060U 23001BD  26061.73744903  .00000637  00000+0  96507-4 0  9990
2 55060  97.9136 126.8110 0011473 325.1866  34.8593 14.77441943170531
HUYGENS                 
1 55093U 23001CN  26061.84621738  .00012894  00000+0  34612-3 0  9994
2 55093  97.3375 129.0087 0011512 106.4374 253.8137 15.38009529176016
SHARJAHSAT-1            
1 55104U 23001CZ  26061.84430009  .00024944  00000+0  53039-3 0  9999
2 55104  97.3306 129.3898 0007622 125.5116 234.6844 15.44947230176052
