[{"OBJECT_NAME":"SKIF-D","OBJECT_ID":"2022-139D","EPOCH":"2026-03-02T03:10:54.105024","MEAN_MOTION":5.00430291,"ECCENTRICITY":0.00073416,"INCLINATION":89.9567,"RA_OF_ASC_NODE":96.7061,"ARG_OF_PERICENTER":236.8899,"MEAN_ANOMALY":123.1172,"EPHEMERIS_TYPE":0,"CLASSIFICATION_TYPE":"U","NORAD_CAT_ID":54153,"ELEMENT_SET_NO":999,"REV_AT_EPOCH":5875,"BSTAR":0,"MEAN_MOTION_DOT":4.3e-7,"MEAN_MOTION_DDOT":0},{"OBJECT_NAME":"MATS","OBJECT_ID":"2022-147A","EPOCH":"2026-03-02T14:29:09.294720","MEAN_MOTION":15.04595677,"ECCENTRICITY":0.0012086,"INCLINATION":97.6835,"RA_OF_ASC_NODE":63.7188,"ARG_OF_PERICENTER":193.5076,"MEAN_ANOMALY":166.5828,"EPHEMERIS_TYPE":0,"CLASSIFICATION_TYPE":"U","NORAD_CAT_ID":54227,"ELEMENT_SET_NO":999,"REV_AT_EPOCH":18173,"BSTAR":0.00033051,"MEAN_MOTION_DOT":4.585e-5,"MEAN_MOTION_DDOT":0},{"OBJECT_NAME":"JILIN-1 GAOFEN 03D54","OBJECT_ID":"2022-155D","EPOCH":"2026-03-02T20:01:45.174432","MEAN_MOTION":15.66771615,"ECCENTRICITY":0.0002113,"INCLINATION":97.6016,"RA_OF_ASC_NODE":204.0484,"ARG_OF_PERICENTER":352.2022,"MEAN_ANOMALY":7.9205,"EPHEMERIS_TYPE":0,"CLASSIFICATION_TYPE":"U","NORAD_CAT_ID":54254,"ELEMENT_SET_NO":999,"REV_AT_EPOCH":18351,"BSTAR":0.00092212,"MEAN_MOTION_DOT":0.00097889,"MEAN_MOTION_DDOT":0},{"OBJECT_NAME":"EOS-6 (OCEANSAT-3)","OBJECT_ID":"2022-158A","EPOCH":"2026-03-02T21:08:08.473632","MEAN_MOTION":14.46998296,"ECCENTRICITY":3.07e-5,"INCLINATION":98.3492,"RA_OF_ASC_NODE":161.5229,"ARG_OF_PERICENTER":30.3301,"MEAN_ANOMALY":329.7909,"EPHEMERIS_TYPE":0,"CLASSIFICATION_TYPE":"U","NORAD_CAT_ID":54361,"ELEMENT_SET_NO":999,"REV_AT_EPOCH":17246,"BSTAR":0.00013629,"MEAN_MOTION_DOT":4.52e-6,"MEAN_MOTION_DDOT":0},{"OBJECT_NAME":"DONGPO 09","OBJECT_ID":"2022-167D","EPOCH":"2026-03-02T20:02:08.191392","MEAN_MOTION":15.33695123,"ECCENTRICITY":0.0003522,"INCLINATION":97.6786,"RA_OF_ASC_NODE":228.3508,"ARG_OF_PERICENTER":134.5659,"MEAN_ANOMALY":225.587,"EPHEMERIS_TYPE":0,"CLASSIFICATION_TYPE":"U","NORAD_CAT_ID":54685,"ELEMENT_SET_NO":999,"REV_AT_EPOCH":17913,"BSTAR":0.00051518,"MEAN_MOTION_DOT":0.00016722,"MEAN_MOTION_DDOT":0},{"OBJECT_NAME":"DONGPO 08","OBJECT_ID":"2022-167E","EPOCH":"2026-03-02T20:02:00.794688","MEAN_MOTION":15.31302483,"ECCENTRICITY":0.0008916,"INCLINATION":97.6743,"RA_OF_ASC_NODE":226.0129,"ARG_OF_PERICENTER":178.2275,"MEAN_ANOMALY":181.8999,"EPHEMERIS_TYPE":0,"CLASSIFICATION_TYPE":"U","NORAD_CAT_ID":54686,"ELEMENT_SET_NO":999,"REV_AT_EPOCH":17903,"BSTAR":0.00050295,"MEAN_MOTION_DOT":0.00015156,"MEAN_MOTION_DDOT":0},{"OBJECT_NAME":"2022-167F","OBJECT_ID":"2022-167F","EPOCH":"2026-03-02T20:32:59.028864","MEAN_MOTION":15.67147122,"ECCENTRICITY":0.0001709,"INCLINATION":97.6209,"RA_OF_ASC_NODE":238.9997,"ARG_OF_PERICENTER":63.5082,"MEAN_ANOMALY":296.6353,"EPHEMERIS_TYPE":0,"CLASSIFICATION_TYPE":"U","NORAD_CAT_ID":54687,"ELEMENT_SET_NO":999,"REV_AT_EPOCH":18006,"BSTAR":0.0007964,"MEAN_MOTION_DOT":0.00085683,"MEAN_MOTION_DDOT":0},{"OBJECT_NAME":"DONGPO 10","OBJECT_ID":"2022-167H","EPOCH":"2026-03-02T21:28:02.699616","MEAN_MOTION":15.32038195,"ECCENTRICITY":0.0006093,"INCLINATION":97.6829,"RA_OF_ASC_NODE":227.7786,"ARG_OF_PERICENTER":128.2457,"MEAN_ANOMALY":231.9333,"EPHEMERIS_TYPE":0,"CLASSIFICATION_TYPE":"U","NORAD_CAT_ID":54689,"ELEMENT_SET_NO":999,"REV_AT_EPOCH":17907,"BSTAR":0.00049404,"MEAN_MOTION_DOT":0.00015222,"MEAN_MOTION_DDOT":0},{"OBJECT_NAME":"JILIN-1 GAOFEN 03D48","OBJECT_ID":"2022-167P","EPOCH":"2026-03-02T21:02:07.078848","MEAN_MOTION":15.32694393,"ECCENTRICITY":0.0007439,"INCLINATION":97.676,"RA_OF_ASC_NODE":227.1139,"ARG_OF_PERICENTER":133.6849,"MEAN_ANOMALY":226.501,"EPHEMERIS_TYPE":0,"CLASSIFICATION_TYPE":"U","NORAD_CAT_ID":54695,"ELEMENT_SET_NO":999,"REV_AT_EPOCH":17909,"BSTAR":0.00052619,"MEAN_MOTION_DOT":0.00016562,"MEAN_MOTION_DDOT":0},{"OBJECT_NAME":"STAR VIBE","OBJECT_ID":"2023-001A","EPOCH":"2026-03-02T19:34:25.722336","MEAN_MOTION":15.39499033,"ECCENTRICITY":0.0007373,"INCLINATION":97.3311,"RA_OF_ASC_NODE":126.0188,"ARG_OF_PERICENTER":131.9222,"MEAN_ANOMALY":228.2654,"EPHEMERIS_TYPE":0,"CLASSIFICATION_TYPE":"U","NORAD_CAT_ID":55009,"ELEMENT_SET_NO":999,"REV_AT_EPOCH":17584,"BSTAR":0.0004615,"MEAN_MOTION_DOT":0.00018066,"MEAN_MOTION_DDOT":0},{"OBJECT_NAME":"BRO-8","OBJECT_ID":"2023-001C","EPOCH":"2026-03-02T19:51:57.441024","MEAN_MOTION":15.42653075,"ECCENTRICITY":0.000771,"INCLINATION":97.3363,"RA_OF_ASC_NODE":125.9096,"ARG_OF_PERICENTER":142.5559,"MEAN_ANOMALY":217.6227,"EPHEMERIS_TYPE":0,"CLASSIFICATION_TYPE":"U","NORAD_CAT_ID":55011,"ELEMENT_SET_NO":999,"REV_AT_EPOCH":17577,"BSTAR":0.00075468,"MEAN_MOTION_DOT":0.00032918,"MEAN_MOTION_DDOT":0},{"OBJECT_NAME":"CONNECTA T1.2","OBJECT_ID":"2023-001D","EPOCH":"2026-03-02T17:22:10.439616","MEAN_MOTION":15.44143303,"ECCENTRICITY":0.0008037,"INCLINATION":97.3405,"RA_OF_ASC_NODE":131.0052,"ARG_OF_PERICENTER":123.3922,"MEAN_ANOMALY":236.8096,"EPHEMERIS_TYPE":0,"CLASSIFICATION_TYPE":"U","NORAD_CAT_ID":55012,"ELEMENT_SET_NO":999,"REV_AT_EPOCH":17608,"BSTAR":0.00044924,"MEAN_MOTION_DOT":0.00020536,"MEAN_MOTION_DDOT":0},{"OBJECT_NAME":"BIRKELAND","OBJECT_ID":"2023-001G","EPOCH":"2026-03-02T20:18:29.399040","MEAN_MOTION":15.37995324,"ECCENTRICITY":0.0008568,"INCLINATION":97.3465,"RA_OF_ASC_NODE":129.6453,"ARG_OF_PERICENTER":123.5902,"MEAN_ANOMALY":236.6162,"EPHEMERIS_TYPE":0,"CLASSIFICATION_TYPE":"U","NORAD_CAT_ID":55015,"ELEMENT_SET_NO":999,"REV_AT_EPOCH":17599,"BSTAR":0.00034301,"MEAN_MOTION_DOT":0.00012759,"MEAN_MOTION_DDOT":0},{"OBJECT_NAME":"ION SCV-008","OBJECT_ID":"2023-001AU","EPOCH":"2026-03-02T19:31:12.428256","MEAN_MOTION":15.27089238,"ECCENTRICITY":0.0015841,"INCLINATION":97.5693,"RA_OF_ASC_NODE":156.4956,"ARG_OF_PERICENTER":32.8713,"MEAN_ANOMALY":327.3508,"EPHEMERIS_TYPE":0,"CLASSIFICATION_TYPE":"U","NORAD_CAT_ID":55051,"ELEMENT_SET_NO":999,"REV_AT_EPOCH":17509,"BSTAR":0.00034786,"MEAN_MOTION_DOT":9.202e-5,"MEAN_MOTION_DDOT":0},{"OBJECT_NAME":"ION SCV-007","OBJECT_ID":"2023-001BD","EPOCH":"2026-03-02T17:41:55.596192","MEAN_MOTION":14.77441943,"ECCENTRICITY":0.0011473,"INCLINATION":97.9136,"RA_OF_ASC_NODE":126.811,"ARG_OF_PERICENTER":325.1866,"MEAN_ANOMALY":34.8593,"EPHEMERIS_TYPE":0,"CLASSIFICATION_TYPE":"U","NORAD_CAT_ID":55060,"ELEMENT_SET_NO":999,"REV_AT_EPOCH":17053,"BSTAR":9.6507e-5,"MEAN_MOTION_DOT":6.37e-6,"MEAN_MOTION_DDOT":0},{"OBJECT_NAME":"HUYGENS","OBJECT_ID":"2023-001CN","EPOCH":"2026-03-02T20:18:33.181632","MEAN_MOTION":15.38009529,"ECCENTRICITY":0.0011512,"INCLINATION":97.3375,"RA_OF_ASC_NODE":129.0087,"ARG_OF_PERICENTER":106.4374,"MEAN_ANOMALY":253.8137,"EPHEMERIS_TYPE":0,"CLASSIFICATION_TYPE":"U","NORAD_CAT_ID":55093,"ELEMENT_SET_NO":999,"REV_AT_EPOCH":17601,"BSTAR":0.00034612,"MEAN_MOTION_DOT":0.00012894,"MEAN_MOTION_DDOT":0},{"OBJECT_NAME":"SHARJAHSAT-1","OBJECT_ID":"2023-001CZ","EPOCH":"2026-03-02T20:15:47.527776","MEAN_MOTION":15.4494723,"ECCENTRICITY":0.0007622,"INCLINATION":97.3306,"RA_OF_ASC_NODE":129.3898,"ARG_OF_PERICENTER":125.5116,"MEAN_ANOMALY":234.6844,"EPHEMERIS_TYPE":0,"CLASSIFICATION_TYPE":"U","NORAD_CAT_ID":55104,"ELEMENT_SET_NO":999,"REV_AT_EPOCH":17605,"BSTAR":0.00053039,"MEAN_MOTION_DOT":0.00024944,"MEAN_MOTION_DDOT":0}]
